ONEWEB-0053             
1 45157U 20008AC  23314.77085808 -.00000286  00000+0 -85677-3 0  9991
2 45157  87.8922 224.8351 0001879  72.5082 287.6250 13.10369888183575
ONEWEB-0054             
1 45158U 20008AD  23314.80662005  .00000246  00000+0  66984-3 0  9990
2 45158  87.8926 224.8139 0001774  72.5025 287.6296 13.10377543183695
ONEWEB-0056             
1 45159U 20008AE  23315.32161076 -.00000562  00000+0 -16449-2 0  9994
2 45159  87.8924 224.7069 0001878  68.8287 291.3041 13.10374740184673
ONEWEB-0057             
1 45160U 20008AF  23314.79359581 -.00000426  00000+0 -12557-2 0  9991
2 45160  87.8928 224.8059 0001841  66.2599 293.8721 13.10371747184011
ONEWEB-0058             
1 45161U 20008AG  23315.46798471 -.00000550  00000+0 -16126-2 0  9996
2 45161  87.8927 224.7191 0001730  70.4373 289.6941 13.10372481184924
ONEWEB-0059             
1 45162U 20008AH  23314.77735482 -.00000496  00000+0 -14585-2 0  9999
2 45162  87.8925 224.8270 0001591  68.4757 291.6539 13.10368847183982
ONEWEB-0062             
1 45163U 20008AJ  23314.80498461  .00000097  00000+0  24023-3 0  9991
2 45163  87.8927 224.8085 0001778  74.0444 286.0879 13.10376620183851
ONEWEB-0065             
1 45164U 20008AK  23315.31673759 -.00000539  00000+0 -15805-2 0  9994
2 45164  87.8928 224.7038 0001846  70.7891 289.3436 13.10373005184350
